[{"OBJECT_NAME":"STARLINK-30595","OBJECT_ID":"2023-161Q","EPOCH":"2026-03-09T14:02:34.488960","MEAN_MOTION":15.30182626,"ECCENTRICITY":0.0001103,"INCLINATION":53.1608,"RA_OF_ASC_NODE":166.1598,"ARG_OF_PERICENTER":80.0909,"MEAN_ANOMALY":280.0216,"EPHEMERIS_TYPE":0,"CLASSIFICATION_TYPE":"U","NORAD_CAT_ID":58111,"ELEMENT_SET_NO":999,"REV_AT_EPOCH":13440,"BSTAR":1.1196e-5,"MEAN_MOTION_DOT":-2.8e-7,"MEAN_MOTION_DDOT":0},{"OBJECT_NAME":"OBJECT A","OBJECT_ID":"2025-013A","EPOCH":"2026-03-09T23:29:31.895232","MEAN_MOTION":15.29260221,"ECCENTRICITY":0.0010321,"INCLINATION":97.6364,"RA_OF_ASC_NODE":244.5149,"ARG_OF_PERICENTER":282.3775,"MEAN_ANOMALY":77.6309,"EPHEMERIS_TYPE":0,"CLASSIFICATION_TYPE":"U","NORAD_CAT_ID":62729,"ELEMENT_SET_NO":999,"REV_AT_EPOCH":6276,"BSTAR":0.0013206527,"MEAN_MOTION_DOT":0.00037616,"MEAN_MOTION_DDOT":0}]
